NORAD_CAT_ID,OBJECT_NAME,OBJECT_TYPE,EPOCH,MEAN_MOTION,ECCENTRICITY,INCLINATION,RA_OF_ASC_NODE,ARG_OF_PERICENTER,MEAN_ANOMALY,BSTAR,MEAN_MOTION_DOT,MEAN_MOTION_DDOT,TLE_LINE0,TLE_LINE1,TLE_LINE2,SEMIMAJOR_AXIS,PERIOD,APOGEE,PERIGEE,DECAYED
53548.0,STARLINK-4513,PAYLOAD,2024-05-13 11:52:20,15.08823516,0.0001445,53.2158,170.299,85.5523,274.5634,0.0010716,0.000168,0.0,0 STARLINK-4513,1 53548U 22101X   24134.49467986  .00016800  00000-0  10716-2 0  9990,2 53548  53.2158 170.2990 0001445  85.5523 274.5634 15.08823516 95881,6917.931,95.439,540.795,538.796,0.0
53548.0,STARLINK-4513,PAYLOAD,2024-05-13 19:49:16,15.08838128,0.0001329,53.215,168.8136,81.11,279.0043,0.0015347,0.0002422,0.0,0 STARLINK-4513,1 53548U 22101X   24134.82588187  .00024220  00000-0  15347-2 0  9994,2 53548  53.2150 168.8136 0001329  81.1100 279.0043 15.08838128 95937,6917.886,95.438,540.67,538.832,0.0
53548.0,STARLINK-4513,PAYLOAD,2024-05-14 11:43:05,15.08877116,0.0001602,53.2163,165.8376,77.7959,282.3213,0.0016115,0.00025478,0.0,0 STARLINK-4513,1 53548U 22101X   24135.48825298  .00025478  00000-0  16115-2 0  9994,2 53548  53.2163 165.8376 0001602  77.7959 282.3213 15.08877116 96039,6917.767,95.435,540.74,538.524,0.0
53548.0,STARLINK-4513,PAYLOAD,2024-05-14 19:39:59,15.08879435,0.0001487,53.2153,164.3495,81.9702,278.1459,0.0012832,0.00020215,0.0,0 STARLINK-4513,1 53548U 22101X   24135.81944274  .00020215  00000-0  12832-2 0  9993,2 53548  53.2153 164.3495 0001487  81.9702 278.1459 15.08879435 96084,6917.76,95.435,540.654,538.596,0.0
53548.0,STARLINK-4513,PAYLOAD,2024-05-15 05:12:19,15.08848438,0.0001753,53.2194,162.566,94.6781,265.4411,0.00024336,3.588e-05,0.0,0 STARLINK-4513,1 53548U 22101X   24136.21689149  .00003588  00000-0  24336-3 0  9992,2 53548  53.2194 162.5660 0001753  94.6781 265.4411 15.08848438 96140,6917.855,95.437,540.932,538.507,0.0
53548.0,STARLINK-4513,PAYLOAD,2024-05-15 11:33:51,15.08847116,0.0001658,53.2164,161.3775,78.6423,281.4755,0.00012797,1.75e-05,0.0,0 STARLINK-4513,1 53548U 22101X   24136.48184912  .00001750  00000-0  12797-3 0  9996,2 53548  53.2164 161.3775 0001658  78.6423 281.4755 15.08847116 96185,6917.859,95.437,540.871,538.577,0.0
53548.0,STARLINK-4513,PAYLOAD,2024-05-15 21:06:09,15.08860624,0.0001301,53.2165,159.5935,79.7867,280.3271,-0.00028195,-4.775e-05,0.0,0 STARLINK-4513,1 53548U 22101X   24136.87927433 -.00004775  00000-0 -28195-3 0  9993,2 53548  53.2165 159.5935 0001301  79.7867 280.3271 15.08860624 96249,6917.817,95.436,540.582,538.782,0.0
53548.0,STARLINK-4513,PAYLOAD,2024-05-16 11:24:36,15.08861094,0.0001566,53.2168,156.9172,81.4735,278.6435,-0.00034818,-5.828e-05,0.0,0 STARLINK-4513,1 53548U 22101X   24137.47542599 -.00005828  00000-0 -34818-3 0  9995,2 53548  53.2168 156.9172 0001566  81.4735 278.6435 15.08861094 96337,6917.816,95.436,540.764,538.598,0.0
53548.0,STARLINK-4513,PAYLOAD,2024-05-17 04:53:51,15.08843762,0.0001506,53.2161,153.6461,84.1028,276.0136,0.00020719,3.011e-05,0.0,0 STARLINK-4513,1 53548U 22101X   24138.20407191  .00003011  00000-0  20719-3 0  9990,2 53548  53.2161 153.6461 0001506  84.1028 276.0136 15.08843762 96448,6917.869,95.437,540.776,538.692,0.0
53548.0,STARLINK-4513,PAYLOAD,2024-05-17 11:15:24,15.08845441,0.0001471,53.2158,152.4562,81.9207,278.1952,0.00017632,2.52e-05,0.0,0 STARLINK-4513,1 53548U 22101X   24138.46903069  .00002520  00000-0  17632-3 0  9997,2 53548  53.2158 152.4562 0001471  81.9207 278.1952 15.08845441 96487,6917.864,95.437,540.746,538.711,0.0
53548.0,STARLINK-4513,PAYLOAD,2024-05-18 07:55:24,15.08843493,0.0001444,53.2156,148.5903,82.1507,277.9649,9.8756e-05,1.284e-05,0.0,0 STARLINK-4513,1 53548U 22101X   24139.33015004  .00001284  00000-0  98756-4 0  9990,2 53548  53.2156 148.5903 0001444  82.1507 277.9649 15.08843493 96616,6917.87,95.437,540.734,538.736,0.0
53548.0,STARLINK-4513,PAYLOAD,2024-05-19 04:35:26,15.08833873,0.0001473,53.2157,144.726,87.3967,272.7194,-6.2804e-05,-1.287e-05,0.0,0 STARLINK-4513,1 53548U 22101X   24140.19127584 -.00001287  00000-0 -62804-4 0  9993,2 53548  53.2157 144.7260 0001473  87.3967 272.7194 15.08833873 96743,6917.899,95.438,540.783,538.745,0.0
53548.0,STARLINK-4513,PAYLOAD,2024-05-19 07:46:12,15.0883401,0.0001436,53.2166,144.131,86.7764,273.3393,-1.8893e-05,-5.89e-06,0.0,0 STARLINK-4513,1 53548U 22101X   24140.32376104 -.00000589  00000-0 -18893-4 0  9995,2 53548  53.2166 144.1310 0001436  86.7764 273.3393 15.08834010 96764,6917.899,95.438,540.757,538.77,0.0
53548.0,STARLINK-4513,PAYLOAD,2024-05-20 04:26:13,15.08840874,0.0001403,53.2166,140.2654,91.9073,268.208,9.5978e-05,1.24e-05,0.0,0 STARLINK-4513,1 53548U 22101X   24141.18487432  .00001240  00000-0  95978-4 0  9999,2 53548  53.2166 140.2654 0001403  91.9073 268.2080 15.08840874 96892,6917.878,95.437,540.713,538.772,0.0
53548.0,STARLINK-4513,PAYLOAD,2024-05-20 09:12:22,15.08844153,0.0001429,53.2167,139.3734,91.5313,268.5843,0.00011987,1.621e-05,0.0,0 STARLINK-4513,1 53548U 22101X   24141.38359170  .00001621  00000-0  11987-3 0  9998,2 53548  53.2167 139.3734 0001429  91.5313 268.5843 15.08844153 96920,6917.868,95.437,540.721,538.744,0.0
53548.0,STARLINK-4513,PAYLOAD,2024-05-21 09:03:09,15.08839908,0.0001394,53.2168,134.9116,93.0967,267.0184,0.00012671,1.729e-05,0.0,0 STARLINK-4513,1 53548U 22101X   24142.37719432  .00001729  00000-0  12671-3 0  9999,2 53548  53.2168 134.9116 0001394  93.0967 267.0184 15.08839908 97070,6917.881,95.438,540.71,538.781,0.0
53548.0,STARLINK-4513,PAYLOAD,2024-05-22 05:43:10,15.08843496,0.000145,53.2172,131.0458,90.9098,269.206,1.3907e-05,-6.7e-07,0.0,0 STARLINK-4513,1 53548U 22101X   24143.23831441 -.00000067  00000-0  13907-4 0  9999,2 53548  53.2172 131.0458 0001450  90.9098 269.2060 15.08843496 97205,6917.87,95.437,540.738,538.732,0.0
53548.0,STARLINK-4513,PAYLOAD,2024-05-23 03:58:34,15.08836995,0.0001382,53.2167,126.881,107.2329,252.8815,7.3079e-06,-1.72e-06,0.0,0 STARLINK-4513,1 53548U 22101X   24144.16567576 -.00000172  00000-0  73079-5 0  9991,2 53548  53.2167 126.8810 0001382 107.2329 252.8815 15.08836995 97343,6917.89,95.438,540.711,538.799,0.0
53548.0,STARLINK-4513,PAYLOAD,2024-05-23 05:33:57,15.08836454,0.0001353,53.2171,126.5842,105.933,254.1812,-8.2703e-08,-2.89e-06,0.0,0 STARLINK-4513,1 53548U 22101X   24144.23191637 -.00000289  00000-0 -82703-7 0  9996,2 53548  53.2171 126.5842 0001353 105.9330 254.1812 15.08836454 97358,6917.891,95.438,540.692,538.82,0.0
53548.0,STARLINK-4513,PAYLOAD,2024-05-24 05:24:44,15.08840666,0.0001331,53.2171,122.1226,103.4096,256.7044,5.6936e-05,6.18e-06,0.0,0 STARLINK-4513,1 53548U 22101X   24145.22551287  .00000618  00000-0  56936-4 0  9997,2 53548  53.2171 122.1226 0001331 103.4096 256.7044 15.08840666 97506,6917.878,95.438,540.664,538.823,0.0
53548.0,STARLINK-4513,PAYLOAD,2024-05-24 22:53:59,15.08833727,0.0001341,53.2173,118.8527,98.7269,261.3876,5.5086e-05,5.89e-06,0.0,0 STARLINK-4513,1 53548U 22101X   24145.95415838  .00000589  00000-0  55086-4 0  9990,2 53548  53.2173 118.8527 0001341  98.7269 261.3876 15.08833727 97610,6917.9,95.438,540.692,538.837,0.0
53548.0,STARLINK-4513,PAYLOAD,2024-05-25 03:40:09,15.08829515,0.0001339,53.2181,117.9607,102.8179,257.2963,9.6506e-06,-1.34e-06,0.0,0 STARLINK-4513,1 53548U 22101X   24146.15288305 -.00000134  00000-0  96506-5 0  9990,2 53548  53.2181 117.9607 0001339 102.8179 257.2963 15.08829515 97646,6917.912,95.438,540.704,538.851,0.0
53548.0,STARLINK-4513,PAYLOAD,2024-05-25 14:47:50,15.08837491,0.0001062,53.2173,115.8808,88.3623,271.749,5.2641e-05,5.5e-06,0.0,0 STARLINK-4513,1 53548U 22101X   24146.61655877  .00000550  00000-0  52641-4 0  9995,2 53548  53.2173 115.8808 0001062  88.3623 271.7490 15.08837491 97718,6917.888,95.438,540.488,539.018,0.0
53548.0,STARLINK-4513,PAYLOAD,2024-05-26 06:41:42,15.08838123,0.0001317,53.2174,112.9068,96.5821,263.5321,9.5622e-06,-1.36e-06,0.0,0 STARLINK-4513,1 53548U 22101X   24147.27896328 -.00000136  00000-0  95622-5 0  9994,2 53548  53.2174 112.9068 0001317  96.5821 263.5321 15.08838123 97815,6917.886,95.438,540.662,538.84,0.0
53548.0,STARLINK-4513,PAYLOAD,2024-05-26 21:00:10,15.08833588,0.0001548,53.2186,110.2304,88.0239,272.0931,8.9441e-05,1.136e-05,0.0,0 STARLINK-4513,1 53548U 22101X   24147.87512589  .00001136  00000-0  89441-4 0  9995,2 53548  53.2186 110.2304 0001548  88.0239 272.0931 15.08833588 97909,6917.9,95.438,540.836,538.694,0.0
53548.0,STARLINK-4513,PAYLOAD,2024-05-27 14:29:25,15.08824559,0.0001336,53.218,106.9597,79.1527,280.9616,0.00021872,3.193e-05,0.0,0 STARLINK-4513,1 53548U 22101X   24148.60377090  .00003193  00000-0  21872-3 0  9991,2 53548  53.2180 106.9597 0001336  79.1527 280.9616 15.08824559 98014,6917.928,95.439,540.717,538.868,0.0
53548.0,STARLINK-4513,PAYLOAD,2024-05-27 20:50:58,15.08838218,0.0001351,53.2178,105.7704,90.94,269.1747,3.8177e-05,3.2e-06,0.0,0 STARLINK-4513,1 53548U 22101X   24148.86872771  .00000320  00000-0  38177-4 0  9991,2 53548  53.2178 105.7704 0001351  90.9400 269.1747 15.08838218 98051,6917.886,95.438,540.685,538.816,0.0
53548.0,STARLINK-4513,PAYLOAD,2024-05-28 04:47:53,15.08840256,0.0001347,53.2174,104.2832,91.5977,268.517,5.5011e-05,5.88e-06,0.0,0 STARLINK-4513,1 53548U 22101X   24149.19992602  .00000588  00000-0  55011-4 0  9996,2 53548  53.2174 104.2832 0001347  91.5977 268.5170 15.08840256 98108,6917.88,95.438,540.676,538.813,0.0
53548.0,STARLINK-4513,PAYLOAD,2024-05-28 20:41:44,15.08840003,0.0001345,53.217,101.3096,91.9922,268.1224,4.4172e-05,4.15e-06,0.0,0 STARLINK-4513,1 53548U 22101X   24149.86232602  .00000415  00000-0  44172-4 0  9992,2 53548  53.2170 101.3096 0001345  91.9922 268.1224 15.08840003 98203,6917.88,95.438,540.676,538.815,0.0
53548.0,STARLINK-4513,PAYLOAD,2024-05-29 06:14:03,15.08842754,0.0001331,53.2175,99.5262,93.4374,266.677,6.4249e-05,7.35e-06,0.0,0 STARLINK-4513,1 53548U 22101X   24150.25976279  .00000735  00000-0  64249-4 0  9994,2 53548  53.2175  99.5262 0001331  93.4374 266.6770 15.08842754 98264,6917.872,95.437,540.658,538.816,0.0
